OBJECT_NAME,OBJECT_ID,EPOCH,MEAN_MOTION,ECCENTRICITY,INCLINATION,RA_OF_ASC_NODE,ARG_OF_PERICENTER,MEAN_ANOMALY,EPHEMERIS_TYPE,CLASSIFICATION_TYPE,NORAD_CAT_ID,ELEMENT_SET_NO,REV_AT_EPOCH,BSTAR,MEAN_MOTION_DOT,MEAN_MOTION_DDOT
GLOBALSTAR M069,2007-020C,2026-06-26T20:37:17.520384,12.23471544,.00021151,52.0006,224.7512,169.4544,14.8143,0,U,31573,999,87998,.34803884E-3,-.55E-6,0
GLOBALSTAR M072,2007-020D,2026-06-27T01:02:31.170048,11.91658409,.0001523,51.9937,74.0056,356.4163,110.1439,0,U,31574,999,87615,-.51335E-4,-.88E-6,0
GLOBALSTAR M066,2007-048C,2026-06-27T00:15:07.610400,12.30387001,.0005627,51.9607,29.7130,64.7091,101.0223,0,U,32265,999,86143,-.16498E-3,-.114E-5,0
GLOBALSTAR M079,2010-054A,2026-06-27T01:02:55.868352,12.62266235,.0000923,52.0044,78.6654,45.6656,58.4079,0,U,37188,999,72379,.87913E-6,-.104E-5,0
GLOBALSTAR M074,2010-054B,2026-06-26T21:44:54.466080,12.62261814,.0000712,52.0015,78.3472,68.6000,10.5372,0,U,37189,999,72438,-.47034E-4,-.112E-5,0
GLOBALSTAR M076,2010-054C,2026-06-26T23:56:08.327040,12.62261873,.000094,52.0030,78.2738,61.8383,311.5181,0,U,37190,999,72411,-.5271E-4,-.113E-5,0
GLOBALSTAR M077,2010-054D,2026-06-27T05:07:01.864992,11.67547984,.0002571,51.9926,153.8471,190.9211,182.0962,0,U,37191,999,72231,.1243E-3,-.71E-6,0
GLOBALSTAR M075,2010-054E,2026-06-27T02:09:02.323872,12.62267414,.00004,51.9939,120.0415,36.5440,336.5238,0,U,37192,999,72319,-.47673E-4,-.112E-5,0
GLOBALSTAR M073,2010-054F,2026-06-26T20:27:25.859232,12.62266663,.00010643,52.0075,34.8721,66.7635,306.2110,0,U,37193,999,72515,.87997027E-4,-.88E-6,0
GLOBALSTAR M083,2011-033A,2026-06-27T05:12:25.229952,12.62263656,.0000955,51.9881,341.9769,83.1555,88.7082,0,U,37739,999,69421,.14774E-3,-.77E-6,0
GLOBALSTAR M088,2011-033B,2026-06-26T22:52:26.829120,12.62268988,.0000488,52.0203,249.2339,141.3830,29.2977,0,U,37740,999,68972,.12751E-3,-.81E-6,0
GLOBALSTAR M091,2011-033C,2026-06-26T19:23:19.683744,12.62264106,.00000623,51.9969,212.6261,181.8795,349.4250,0,U,37741,999,69049,.15053503E-3,-.77E-6,0
GLOBALSTAR M085,2011-033D,2026-06-27T05:38:20.344416,12.62264180,.0000344,52.0099,162.6251,357.1152,15.9637,0,U,37742,999,69106,.24201E-4,-.99E-6,0
GLOBALSTAR M081,2011-033E,2026-06-27T04:44:53.794176,12.62265259,.0000238,51.9930,165.1630,35.9140,48.1491,0,U,37743,999,69120,.56793E-4,-.94E-6,0
GLOBALSTAR M089,2011-033F,2026-06-27T03:25:20.295264,12.62267414,.0000497,51.9920,119.4879,78.4915,295.3457,0,U,37744,999,69204,-.2964E-4,-.109E-5,0
GLOBALSTAR M084,2011-080A,2026-06-27T04:34:15.275712,12.62267649,.0001097,52.0026,346.8286,102.1922,69.1514,0,U,38040,999,67002,.4348E-4,-.96E-6,0
GLOBALSTAR M080,2011-080B,2026-06-27T05:46:55.811136,12.62269764,.0000421,52.0084,348.3967,77.4570,93.4421,0,U,38041,999,67015,.10791E-3,-.84E-6,0
GLOBALSTAR M082,2011-080C,2026-06-27T02:21:04.485312,12.62263746,.0000474,52.0089,304.3343,106.2239,64.5730,0,U,38042,999,67084,.15421E-4,-.101E-5,0
GLOBALSTAR M092,2011-080D,2026-06-26T23:41:38.965056,12.62267137,.0000822,52.0098,35.0685,77.3843,69.2094,0,U,38043,999,66928,.70928E-4,-.91E-6,0
GLOBALSTAR M090,2011-080E,2026-06-27T01:05:29.395104,12.62269075,.0000717,52.0134,298.4529,103.0447,68.3166,0,U,38044,999,67095,-.20902E-4,-.108E-5,0
GLOBALSTAR M086,2011-080F,2026-06-27T01:36:23.502816,12.62287241,.0001684,51.9910,298.3014,84.1397,86.4557,0,U,38045,999,67090,.1427E-3,-.78E-6,0
GLOBALSTAR M097,2013-005A,2026-06-26T19:45:42.576480,12.62271200,.0000131,52.0016,214.0038,97.1104,262.9778,0,U,39072,999,61812,.17479479E-3,-.72E-6,0
GLOBALSTAR M093,2013-005B,2026-06-26T19:07:03.052704,12.62266086,.00002232,52.0075,207.4348,40.6543,319.4341,0,U,39073,999,61807,.1479628E-3,-.77E-6,0
GLOBALSTAR M094,2013-005C,2026-06-27T02:42:57.837024,12.62268484,.0000656,51.9946,120.5765,28.5942,331.4961,0,U,39074,999,61972,-.10499E-3,-.123E-5,0
GLOBALSTAR M096,2013-005D,2026-06-27T03:02:24.679392,12.62265642,.0000274,52.0044,169.3452,0.6534,359.4333,0,U,39075,999,61864,.83147E-5,-.102E-5,0
GLOBALSTAR M078,2013-005E,2026-06-26T22:35:34.290240,12.62259916,.0000502,51.9865,253.9072,272.8083,87.2727,0,U,39076,999,61724,.78113E-3,.36E-6,0
GLOBALSTAR M095,2013-005F,2026-06-26T21:20:01.417920,12.62263622,.0000053,52.0073,251.6849,91.2536,268.8337,0,U,39077,999,61709,.12886E-3,-.81E-6,0
GLOBALSTAR M087,2022-064A,2026-06-26T23:33:02.828736,12.62269242,.0000892,52.0010,32.6351,58.1235,301.9718,0,U,52888,999,19237,.60319E-4,-.93E-6,0
